[{"OBJECT_NAME":"STARLINK-36545","OBJECT_ID":"2026-012N","EPOCH":"2026-03-09T02:08:59.273952","MEAN_MOTION":15.27585194,"ECCENTRICITY":0.00024901,"INCLINATION":43.006,"RA_OF_ASC_NODE":317.475,"ARG_OF_PERICENTER":266.3239,"MEAN_ANOMALY":93.7328,"EPHEMERIS_TYPE":0,"CLASSIFICATION_TYPE":"U","NORAD_CAT_ID":67505,"ELEMENT_SET_NO":999,"REV_AT_EPOCH":767,"BSTAR":0.0007848828,"MEAN_MOTION_DOT":0.00021403,"MEAN_MOTION_DDOT":0},{"OBJECT_NAME":"SL-3 R\/B","OBJECT_ID":"1982-013B","EPOCH":"2026-03-09T21:53:00.854016","MEAN_MOTION":15.22021316,"ECCENTRICITY":0.00226549,"INCLINATION":81.1762,"RA_OF_ASC_NODE":160.5103,"ARG_OF_PERICENTER":176.767,"MEAN_ANOMALY":183.3713,"EPHEMERIS_TYPE":0,"CLASSIFICATION_TYPE":"U","NORAD_CAT_ID":13068,"ELEMENT_SET_NO":999,"REV_AT_EPOCH":40438,"BSTAR":0.00024250009,"MEAN_MOTION_DOT":5.603e-5,"MEAN_MOTION_DDOT":0}]
